[{"OBJECT_NAME":"NETSAT-2","OBJECT_ID":"2020-068X","EPOCH":"2026-03-04T11:32:20.365728","MEAN_MOTION":15.41265842,"ECCENTRICITY":0.00052366,"INCLINATION":97.8651,"RA_OF_ASC_NODE":63.1858,"ARG_OF_PERICENTER":36.2476,"MEAN_ANOMALY":323.9124,"EPHEMERIS_TYPE":0,"CLASSIFICATION_TYPE":"U","NORAD_CAT_ID":46507,"ELEMENT_SET_NO":999,"REV_AT_EPOCH":29958,"BSTAR":0.00085700401,"MEAN_MOTION_DOT":0.00035694,"MEAN_MOTION_DDOT":0},{"OBJECT_NAME":"WILDTRACKCUBE-SIMBA","OBJECT_ID":"2021-022K","EPOCH":"2026-03-04T21:08:33.508032","MEAN_MOTION":16.23643125,"ECCENTRICITY":0.0005381,"INCLINATION":97.3793,"RA_OF_ASC_NODE":345.8568,"ARG_OF_PERICENTER":139.9164,"MEAN_ANOMALY":220.2525,"EPHEMERIS_TYPE":0,"CLASSIFICATION_TYPE":"U","NORAD_CAT_ID":47941,"ELEMENT_SET_NO":999,"REV_AT_EPOCH":27507,"BSTAR":0.0012257,"MEAN_MOTION_DOT":0.03070808,"MEAN_MOTION_DDOT":2.4537e-6},{"OBJECT_NAME":"GREENCUBE (IO-117)","OBJECT_ID":"2022-080E","EPOCH":"2026-03-04T18:03:14.931360","MEAN_MOTION":6.42583119,"ECCENTRICITY":0.0009068,"INCLINATION":70.1624,"RA_OF_ASC_NODE":334.5702,"ARG_OF_PERICENTER":312.4506,"MEAN_ANOMALY":47.5387,"EPHEMERIS_TYPE":0,"CLASSIFICATION_TYPE":"U","NORAD_CAT_ID":53109,"ELEMENT_SET_NO":999,"REV_AT_EPOCH":8535,"BSTAR":0,"MEAN_MOTION_DOT":-3.0e-8,"MEAN_MOTION_DDOT":0},{"OBJECT_NAME":"SITRO-AIS 5 (KATYS)","OBJECT_ID":"2023-091L","EPOCH":"2026-03-04T19:56:23.173728","MEAN_MOTION":15.26907447,"ECCENTRICITY":0.0013437,"INCLINATION":97.5189,"RA_OF_ASC_NODE":126.8684,"ARG_OF_PERICENTER":110.5613,"MEAN_ANOMALY":249.7068,"EPHEMERIS_TYPE":0,"CLASSIFICATION_TYPE":"U","NORAD_CAT_ID":57176,"ELEMENT_SET_NO":999,"REV_AT_EPOCH":14840,"BSTAR":0.00066332,"MEAN_MOTION_DOT":0.00017522,"MEAN_MOTION_DDOT":0},{"OBJECT_NAME":"SITRO-AIS 6 (CHIRKIN)","OBJECT_ID":"2023-091AC","EPOCH":"2026-03-04T20:33:08.144928","MEAN_MOTION":15.24320074,"ECCENTRICITY":0.0014168,"INCLINATION":97.5193,"RA_OF_ASC_NODE":126.5088,"ARG_OF_PERICENTER":110.6582,"MEAN_ANOMALY":249.6176,"EPHEMERIS_TYPE":0,"CLASSIFICATION_TYPE":"U","NORAD_CAT_ID":57192,"ELEMENT_SET_NO":999,"REV_AT_EPOCH":14838,"BSTAR":0.00045553,"MEAN_MOTION_DOT":0.00011103,"MEAN_MOTION_DDOT":0},{"OBJECT_NAME":"SITRO-AIS 8 (ANOKHIN)","OBJECT_ID":"2023-091AD","EPOCH":"2026-03-04T21:15:12.570624","MEAN_MOTION":15.29163001,"ECCENTRICITY":0.0012653,"INCLINATION":97.5179,"RA_OF_ASC_NODE":128.1241,"ARG_OF_PERICENTER":108.1893,"MEAN_ANOMALY":252.0725,"EPHEMERIS_TYPE":0,"CLASSIFICATION_TYPE":"U","NORAD_CAT_ID":57193,"ELEMENT_SET_NO":999,"REV_AT_EPOCH":14849,"BSTAR":0.00068788,"MEAN_MOTION_DOT":0.00019467,"MEAN_MOTION_DDOT":0},{"OBJECT_NAME":"SITRO-AIS 7 (FARTUSHNIY)","OBJECT_ID":"2023-091AE","EPOCH":"2026-03-04T20:09:44.332416","MEAN_MOTION":15.24075496,"ECCENTRICITY":0.0014033,"INCLINATION":97.5193,"RA_OF_ASC_NODE":126.3657,"ARG_OF_PERICENTER":111.5624,"MEAN_ANOMALY":248.711,"EPHEMERIS_TYPE":0,"CLASSIFICATION_TYPE":"U","NORAD_CAT_ID":57194,"ELEMENT_SET_NO":999,"REV_AT_EPOCH":14837,"BSTAR":0.00039173,"MEAN_MOTION_DOT":9.466e-5,"MEAN_MOTION_DDOT":0},{"OBJECT_NAME":"SITRO-AIS 10 (BURDAEV)","OBJECT_ID":"2023-091AK","EPOCH":"2026-03-04T20:41:45.492576","MEAN_MOTION":15.34501196,"ECCENTRICITY":0.0008449,"INCLINATION":97.5195,"RA_OF_ASC_NODE":132.177,"ARG_OF_PERICENTER":90.1784,"MEAN_ANOMALY":270.0427,"EPHEMERIS_TYPE":0,"CLASSIFICATION_TYPE":"U","NORAD_CAT_ID":57199,"ELEMENT_SET_NO":999,"REV_AT_EPOCH":14874,"BSTAR":0.00084905,"MEAN_MOTION_DOT":0.00028397,"MEAN_MOTION_DDOT":0},{"OBJECT_NAME":"SITRO-AIS 9 (SHCHUKIN)","OBJECT_ID":"2023-091AM","EPOCH":"2026-03-04T20:37:30.901152","MEAN_MOTION":15.34135297,"ECCENTRICITY":0.0008629,"INCLINATION":97.5193,"RA_OF_ASC_NODE":131.9759,"ARG_OF_PERICENTER":89.8465,"MEAN_ANOMALY":270.3766,"EPHEMERIS_TYPE":0,"CLASSIFICATION_TYPE":"U","NORAD_CAT_ID":57201,"ELEMENT_SET_NO":999,"REV_AT_EPOCH":14873,"BSTAR":0.00081505,"MEAN_MOTION_DOT":0.00026939,"MEAN_MOTION_DDOT":0},{"OBJECT_NAME":"SITRO-AIS 12 (SMIRENNIY)","OBJECT_ID":"2023-091AQ","EPOCH":"2026-03-04T20:50:34.899072","MEAN_MOTION":15.3437728,"ECCENTRICITY":0.0008306,"INCLINATION":97.5204,"RA_OF_ASC_NODE":132.3917,"ARG_OF_PERICENTER":85.4296,"MEAN_ANOMALY":274.7895,"EPHEMERIS_TYPE":0,"CLASSIFICATION_TYPE":"U","NORAD_CAT_ID":57204,"ELEMENT_SET_NO":999,"REV_AT_EPOCH":14875,"BSTAR":0.0007219,"MEAN_MOTION_DOT":0.00024023,"MEAN_MOTION_DDOT":0},{"OBJECT_NAME":"SITRO-AIS 11 (SHEFFER)","OBJECT_ID":"2023-091AU","EPOCH":"2026-03-04T20:13:30.625248","MEAN_MOTION":15.3471503,"ECCENTRICITY":0.0008178,"INCLINATION":97.5202,"RA_OF_ASC_NODE":132.5529,"ARG_OF_PERICENTER":85.3,"MEAN_ANOMALY":274.9177,"EPHEMERIS_TYPE":0,"CLASSIFICATION_TYPE":"U","NORAD_CAT_ID":57208,"ELEMENT_SET_NO":999,"REV_AT_EPOCH":14876,"BSTAR":0.00080677,"MEAN_MOTION_DOT":0.00027156,"MEAN_MOTION_DDOT":0},{"OBJECT_NAME":"SITRO-AIS 25","OBJECT_ID":"2024-039R","EPOCH":"2026-03-04T19:49:34.436928","MEAN_MOTION":14.92581706,"ECCENTRICITY":0.0145871,"INCLINATION":95.3946,"RA_OF_ASC_NODE":163.4095,"ARG_OF_PERICENTER":333.5061,"MEAN_ANOMALY":25.8757,"EPHEMERIS_TYPE":0,"CLASSIFICATION_TYPE":"U","NORAD_CAT_ID":59066,"ELEMENT_SET_NO":999,"REV_AT_EPOCH":10915,"BSTAR":0.00044885,"MEAN_MOTION_DOT":5.646e-5,"MEAN_MOTION_DDOT":0},{"OBJECT_NAME":"SITRO-AIS 26","OBJECT_ID":"2024-039S","EPOCH":"2026-03-04T21:08:32.359776","MEAN_MOTION":14.92394971,"ECCENTRICITY":0.0146197,"INCLINATION":95.3944,"RA_OF_ASC_NODE":163.3651,"ARG_OF_PERICENTER":333.7576,"MEAN_ANOMALY":25.629,"EPHEMERIS_TYPE":0,"CLASSIFICATION_TYPE":"U","NORAD_CAT_ID":59067,"ELEMENT_SET_NO":999,"REV_AT_EPOCH":10915,"BSTAR":0.00045359,"MEAN_MOTION_DOT":5.682e-5,"MEAN_MOTION_DDOT":0},{"OBJECT_NAME":"SITRO-AIS 27","OBJECT_ID":"2024-039T","EPOCH":"2026-03-04T21:06:33.005088","MEAN_MOTION":14.92789096,"ECCENTRICITY":0.0145278,"INCLINATION":95.3945,"RA_OF_ASC_NODE":163.5894,"ARG_OF_PERICENTER":332.5871,"MEAN_ANOMALY":26.774,"EPHEMERIS_TYPE":0,"CLASSIFICATION_TYPE":"U","NORAD_CAT_ID":59068,"ELEMENT_SET_NO":999,"REV_AT_EPOCH":10917,"BSTAR":0.00044667,"MEAN_MOTION_DOT":5.641e-5,"MEAN_MOTION_DDOT":0},{"OBJECT_NAME":"SITRO-AIS 28","OBJECT_ID":"2024-039U","EPOCH":"2026-03-04T20:37:31.988064","MEAN_MOTION":14.92821344,"ECCENTRICITY":0.0145258,"INCLINATION":95.3944,"RA_OF_ASC_NODE":163.6174,"ARG_OF_PERICENTER":332.4819,"MEAN_ANOMALY":26.8767,"EPHEMERIS_TYPE":0,"CLASSIFICATION_TYPE":"U","NORAD_CAT_ID":59071,"ELEMENT_SET_NO":999,"REV_AT_EPOCH":10917,"BSTAR":0.00041265,"MEAN_MOTION_DOT":5.213e-5,"MEAN_MOTION_DDOT":0},{"OBJECT_NAME":"GRBBETA","OBJECT_ID":"2024-128C","EPOCH":"2026-03-04T12:39:27.946656","MEAN_MOTION":15.05714089,"ECCENTRICITY":0.0051948,"INCLINATION":61.9892,"RA_OF_ASC_NODE":223.2246,"ARG_OF_PERICENTER":113.1459,"MEAN_ANOMALY":247.512,"EPHEMERIS_TYPE":0,"CLASSIFICATION_TYPE":"U","NORAD_CAT_ID":60237,"ELEMENT_SET_NO":999,"REV_AT_EPOCH":9050,"BSTAR":0.0005512,"MEAN_MOTION_DOT":8.048e-5,"MEAN_MOTION_DDOT":0}]
